KUIPER-00008            
1 63724U 25088A   25352.30967362 -.00009420  00000+0 -74289-3 0  9997
2 63724  51.8920  97.8582 0009539 185.8882 174.1978 14.99237754 35853
KUIPER-00009            
1 63725U 25088B   25352.61209425  .00001933  00000+0  28271-3 0  9990
2 63725  51.9029 105.1448 0010178 190.3013 169.7742 14.79917569 35774
KUIPER-00010            
1 63726U 25088C   25352.52572206  .00001547  00000+0  22943-3 0  9992
2 63726  51.9015  81.8758 0011644 229.3297 130.6655 14.80431315 35716
KUIPER-00011            
1 63727U 25088D   25352.56242421  .00002877  00000+0  40565-3 0  9997
2 63727  51.9002  89.4011 0013289 202.7725 157.2650 14.79973294 35745
KUIPER-00012            
1 63728U 25088E   25352.61109161 -.00003551  00000+0 -47090-3 0  9999
2 63728  51.9038  72.6980 0008310 215.2093 144.8319 14.76799762 35938
KUIPER-00013            
1 63729U 25088F   25352.47599651  .00001182  00000+0  18397-3 0  9995
2 63729  51.9017 107.2129 0008192 113.2472 246.9354 14.79984242 35544
KUIPER-00014            
1 63730U 25088G   25351.73117716  .00001711  00000+0  25320-3 0  9995
2 63730  51.9023 111.4733 0009568 172.7996 187.3105 14.80000326 35232
KUIPER-00015            
1 63731U 25088H   25352.57352648  .00001958  00000+0  27251-3 0  9992
2 63731  51.8985 118.6484 0010807 165.5194 194.6081 14.82013283 35668
